{
    "links": {
        "self": "http://www.neowsapp.com/rest/v1/neo/3989345?api_key=iIulBulltgU6a56xZRHN4H3l9WmuAYTsLGpBGhQ2"
    },
    "id": "3989345",
    "neo_reference_id": "3989345",
    "name": "(2020 BA15)",
    "designation": "2020 BA15",
    "nasa_jpl_url": "http://ssd.jpl.nasa.gov/sbdb.cgi?sstr=3989345",
    "absolute_magnitude_h": 27.351,
    "estimated_diameter": {
        "kilometers": {
            "estimated_diameter_min": 0.009002331,
            "estimated_diameter_max": 0.020129824
        },
        "meters": {
            "estimated_diameter_min": 9.0023309888,
            "estimated_diameter_max": 20.1298240469
        },
        "miles": {
            "estimated_diameter_min": 0.0055937874,
            "estimated_diameter_max": 0.0125080889
        },
        "feet": {
            "estimated_diameter_min": 29.5352076014,
            "estimated_diameter_max": 66.0427319262
        }
    },
    "is_potentially_hazardous_asteroid": false,
    "close_approach_data": [
        {
            "close_approach_date": "2018-02-21",
            "close_approach_date_full": "2018-Feb-21 06:40",
            "epoch_date_close_approach": 1519195200000,
            "relative_velocity": {
                "kilometers_per_second": "23.4322955112",
                "kilometers_per_hour": "84356.2638404327",
                "miles_per_hour": "52415.7018290733"
            },
            "miss_distance": {
                "astronomical": "0.3975219953",
                "lunar": "154.6360561717",
                "kilometers": "59468443.775030011",
                "miles": "36951977.4758397118"
            },
            "orbiting_body": "Earth"
        },
        {
            "close_approach_date": "2020-01-28",
            "close_approach_date_full": "2020-Jan-28 10:38",
            "epoch_date_close_approach": 1580207880000,
            "relative_velocity": {
                "kilometers_per_second": "11.9022072771",
                "kilometers_per_hour": "42847.946197501",
                "miles_per_hour": "26624.0474581083"
            },
            "miss_distance": {
                "astronomical": "0.0018134019",
                "lunar": "0.7054133391",
                "kilometers": "271281.061693953",
                "miles": "168566.2352164314"
            },
            "orbiting_body": "Moon"
        },
        {
            "close_approach_date": "2020-01-28",
            "close_approach_date_full": "2020-Jan-28 18:03",
            "epoch_date_close_approach": 1580234580000,
            "relative_velocity": {
                "kilometers_per_second": "12.2259527386",
                "kilometers_per_hour": "44013.4298588376",
                "miles_per_hour": "27348.2336808983"
            },
            "miss_distance": {
                "astronomical": "0.0025170609",
                "lunar": "0.9791366901",
                "kilometers": "376546.949300283",
                "miles": "233975.4247105854"
            },
            "orbiting_body": "Earth"
        },
        {
            "close_approach_date": "2022-01-21",
            "close_approach_date_full": "2022-Jan-21 18:20",
            "epoch_date_close_approach": 1642789200000,
            "relative_velocity": {
                "kilometers_per_second": "10.6714059626",
                "kilometers_per_hour": "38417.061465472",
                "miles_per_hour": "23870.8679978095"
            },
            "miss_distance": {
                "astronomical": "0.0538855378",
                "lunar": "20.9614742042",
                "kilometers": "8061161.678684486",
                "miles": "5008973.5979424668"
            },
            "orbiting_body": "Earth"
        },
        {
            "close_approach_date": "2035-08-05",
            "close_approach_date_full": "2035-Aug-05 14:35",
            "epoch_date_close_approach": 2069937300000,
            "relative_velocity": {
                "kilometers_per_second": "12.6195429925",
                "kilometers_per_hour": "45430.354772964",
                "miles_per_hour": "28228.6557199009"
            },
            "miss_distance": {
                "astronomical": "0.0292879495",
                "lunar": "11.3930123555",
                "kilometers": "4381414.861867565",
                "miles": "2722484.951859797"
            },
            "orbiting_body": "Mars"
        }
    ],
    "orbital_data": {
        "orbit_id": "4",
        "orbit_determination_date": "2020-04-13 11:43:21",
        "first_observation_date": "2020-01-30",
        "last_observation_date": "2020-02-19",
        "data_arc_in_days": 20,
        "observations_used": 30,
        "orbit_uncertainty": "7",
        "minimum_orbit_intersection": ".000581148",
        "jupiter_tisserand_invariant": "4.250",
        "epoch_osculation": "2459000.5",
        "eccentricity": ".4688374867468361",
        "semi_major_axis": "1.582335927946043",
        "inclination": "9.336094874818686",
        "ascending_node_longitude": "127.9492007429403",
        "orbital_period": "727.0201712323607",
        "perihelion_distance": ".8404775282985976",
        "perihelion_argument": "302.4999431711213",
        "aphelion_distance": "2.324194327593489",
        "perihelion_time": "2458835.862552938349",
        "mean_anomaly": "81.52384663788273",
        "mean_motion": ".4951719556690835",
        "equinox": "J2000",
        "orbit_class": {
            "orbit_class_type": "APO",
            "orbit_class_description": "Near-Earth asteroid orbits which cross the Earth’s orbit similar to that of 1862 Apollo",
            "orbit_class_range": "a (semi-major axis) > 1.0 AU; q (perihelion) < 1.017 AU"
        }
    },
    "is_sentry_object": false
}